IONOSFERA-M 2           
1 61736U 24199B   26166.61059455  .00000042  00000+0  38433-4 0  9994
2 61736  98.7173  39.7101 0001112  39.8820 320.2440 14.22757235130609
PRSC-EO1                
1 62725U 25012A   26166.27955253  .00006175  00000+0  30911-3 0  9996
2 62725  97.4230 238.7768 0004318 259.0551 101.0197 15.17748554 77902
BIOMASS                 
1 63772U 25090A   26166.53348829  .00000861  00000+0  16024-3 0  9994
2 63772  98.0740 353.8747 0001333  94.3227 265.8130 14.67535867 60440
GOSAT-GW (IBUKI GW)     
1 64694U 25141A   26166.62197535  .00000642  00000+0  12161-3 0  9996
2 64694  98.0569 103.9645 0001420  83.6773 276.4593 14.67553849 51618
IONOSFERA-M 3           
1 64876U 25155A   26166.62687920  .00000029  00000+0  32681-4 0  9994
2 64876  98.6024 128.5712 0000918 159.9984 200.1229 14.21486186 46187
IONOSFERA-M 4           
1 64877U 25155B   26166.59133475  .00000027  00000+0  32068-4 0  9999
2 64877  98.6030 128.4539 0000994 120.2747 239.8530 14.21488389 46173
MICROCARB               
1 64899U 25156A   26166.45072800  .00000428  00000+0  75471-4 0  9993
2 64899  97.9832 243.6190 0014978 278.2658  81.6850 14.72323822 47719
CO3D 3                  
1 64900U 25156B   26166.41041389  .00003526  00000+0  16588-3 0  9995
2 64900  97.4334 245.1287 0001365 130.7372 229.3982 15.20209597 49264
CO3D 4                  
1 64901U 25156C   26166.54220819  .00000256  00000+0  14950-4 0  9996
2 64901  97.4332 245.2586 0000223   9.3484 350.7755 15.20211467 49281
CO3D 2                  
1 64902U 25156D   26166.50887049  .00004101  00000+0  19245-3 0  9991
2 64902  97.4334 245.1248 0001507 109.0761 251.0638 15.20207752 49274
CO3D 1                  
1 64903U 25156E   26166.50902224  .00004837  00000+0  22637-3 0  9990
2 64903  97.4335 245.1251 0001307 114.4182 245.7190 15.20207182 49275
PRSC-S1                 
1 65055U 25164A   26166.67281346  .00004261  00000+0  29540-3 0  9992
2 65055  41.1314 296.3414 0006854 334.5527  25.4948 15.06447377 48208
SENTINEL-6B             
1 66514U 25264A   26166.29008502 -.00000066  00000+0 -21011-4 0  9990
2 66514  66.0393 139.1188 0008020 269.2064  90.8032 12.80930005 26920
CAS500-3                
1 66655U 25274F   26166.53445890  .00001076  00000+0  12208-3 0  9996
2 66655  97.7446  94.6230 0006714 114.3291 245.8627 14.88317612 29905
CSG-3                   
1 67304U 26001A   26166.51127330  .00000252  00000+0  38233-4 0  9993
2 67304  97.8884 350.1373 0001345  94.1884 265.9483 14.82152709 24210
PRSC-E03                
1 68835U 26092A   26166.53135167  .00002251  00000+0  15607-3 0  9992
2 68835  38.0006  99.4440 0004032 351.1321   8.9369 15.06660962  7704
CAS500-2                
1 69013U 26100AK  26166.30960717  .00005118  00000+0  23650-3 0  9995
2 69013  97.4083  64.1975 0010870  40.7302 319.4744 15.20570859  6523
