OBJECT_NAME,OBJECT_ID,EPOCH,MEAN_MOTION,ECCENTRICITY,INCLINATION,RA_OF_ASC_NODE,ARG_OF_PERICENTER,MEAN_ANOMALY,EPHEMERIS_TYPE,CLASSIFICATION_TYPE,NORAD_CAT_ID,ELEMENT_SET_NO,REV_AT_EPOCH,BSTAR,MEAN_MOTION_DOT,MEAN_MOTION_DDOT
IONOSFERA-M 2,2024-199B,2026-06-15T14:39:15.369120,14.22757235,.00011124,98.7173,39.7101,39.8820,320.2440,0,U,61736,999,13060,.38432919E-4,.42E-6,0
PRSC-EO1,2025-012A,2026-06-15T06:42:33.338592,15.17748554,.0004318,97.4230,238.7768,259.0551,101.0197,0,U,62725,999,7790,.30911E-3,.6175E-4,0
BIOMASS,2025-090A,2026-06-15T12:48:13.388256,14.67535867,.00013332,98.0740,353.8747,94.3227,265.8130,0,U,63772,999,6044,.16023636E-3,.861E-5,0
GOSAT-GW (IBUKI GW),2025-141A,2026-06-15T14:55:38.670240,14.67553849,.00014202,98.0569,103.9645,83.6773,276.4593,0,U,64694,999,5161,.12161379E-3,.642E-5,0
IONOSFERA-M 3,2025-155A,2026-06-15T15:02:42.362880,14.21486186,.00009189,98.6024,128.5712,159.9984,200.1229,0,U,64876,999,4618,.32680832E-4,.29E-6,0
IONOSFERA-M 4,2025-155B,2026-06-15T14:11:31.322400,14.21488389,.00009944,98.6030,128.4539,120.2747,239.8530,0,U,64877,999,4617,.32067962E-4,.27E-6,0
MICROCARB,2025-156A,2026-06-15T10:49:02.899200,14.72323822,.00149788,97.9832,243.6190,278.2658,81.6850,0,U,64899,999,4771,.75470826E-4,.428E-5,0
CO3D 3,2025-156B,2026-06-15T09:50:59.760096,15.20209597,.00013652,97.4334,245.1287,130.7372,229.3982,0,U,64900,999,4926,.16588102E-3,.3526E-4,0
CO3D 4,2025-156C,2026-06-15T13:00:46.787616,15.20211467,.0000223,97.4332,245.2586,9.3484,350.7755,0,U,64901,999,4928,.14949768E-4,.256E-5,0
CO3D 2,2025-156D,2026-06-15T12:12:46.410336,15.20207752,.0001507,97.4334,245.1248,109.0761,251.0638,0,U,64902,999,4927,.19245041E-3,.4101E-4,0
CO3D 1,2025-156E,2026-06-15T12:12:59.521536,15.20207182,.00013072,97.4335,245.1251,114.4182,245.7190,0,U,64903,999,4927,.22637054E-3,.4837E-4,0
PRSC-S1,2025-164A,2026-06-15T16:08:51.082944,15.06447377,.00068545,41.1314,296.3414,334.5527,25.4948,0,U,65055,999,4820,.29539505E-3,.4261E-4,0
SENTINEL-6B,2025-264A,2026-06-15T06:57:43.345728,12.80930005,.000802,66.0393,139.1188,269.2064,90.8032,0,U,66514,999,2692,-.21011E-4,-.66E-6,0
CAS500-3,2025-274F,2026-06-15T12:49:37.248960,14.88317612,.00067146,97.7446,94.6230,114.3291,245.8627,0,U,66655,999,2990,.12207711E-3,.1076E-4,0
CSG-3,2026-001A,2026-06-15T12:16:14.013120,14.82152709,.00013456,97.8884,350.1373,94.1884,265.9483,0,U,67304,999,2421,.3823264E-4,.252E-5,0
PRSC-E03,2026-092A,2026-06-15T12:45:08.784288,15.06660962,.00040327,38.0006,99.4440,351.1321,8.9369,0,U,68835,999,770,.15606902E-3,.2251E-4,0
CAS500-2,2026-100AK,2026-06-15T07:25:50.059488,15.20570859,.00108708,97.4083,64.1975,40.7302,319.4744,0,U,69013,999,652,.23649789E-3,.5118E-4,0
